[
    {
        "Altitude(m)": 610399.5574163431,
        "Argument of Periapsis(deg)": 0.0,
        "Eccentricity": 0.0,
        "Inclination(deg)": 60.0,
        "Latitude(deg)": 52.11141378504824,
        "Longitude(deg)": 157.58441001442637,
        "Mean Anomaly(deg)": 65.45449999999998,
        "RAAN(deg)": 210.0,
        "Satellite Name": "Test1 928",
        "Satellite Number": 928,
        "Semi-Major Axis(m)": 6980739.136638005,
        "Time(s)": 0
    },
    {
        "Altitude(m)": 610481.7080054384,
        "Argument of Periapsis(deg)": 0.00010418945913296404,
        "Eccentricity": 0.0,
        "Inclination(deg)": 60.0,
        "Latitude(deg)": 52.471014913756825,
        "Longitude(deg)": 158.3665489793271,
        "Mean Anomaly(deg)": 66.07460614546183,
        "RAAN(deg)": 209.99957995086027,
        "Satellite Name": "Test1 928",
        "Satellite Number": 928,
        "Semi-Major Axis(m)": 6980739.136638005,
        "Time(s)": 10
    }
]